STARLINK-36918          
1 67956U 26037AA  26191.10845869  .00008121  00000+0  30414-3 0  9997
2 67956  42.9971 219.3094 0001363 287.2969  72.7733 15.27596189 22063
STARLINK-36829          
1 67957U 26037AB  26191.11617924  .00011575  00000+0  42912-3 0  9991
2 67957  43.0039 219.3797 0003846 289.8687  70.1750 15.27606131 22053
STARLINK-36799          
1 67958U 26037AC  26191.10458036  .00026522  00000+0  96794-3 0  9993
2 67958  42.9955 219.2706 0001334 270.4254  89.6445 15.27644405 22067
STARLINK-36834          
1 67959U 26037AD  26191.09432488  .00004414  00000+0  16978-3 0  9997
2 67959  42.9975 219.2057 0001759 273.8169  86.2482 15.27591602 22066
STARLINK-36841          
1 67960U 26037AE  26191.09818210  .00004512  00000+0  17333-3 0  9995
2 67960  43.0027 219.2357 0002853 276.1581  83.8946 15.27592275 22066
STARLINK-36912          
1 67961U 26038A   26191.29261468  .00006130  00000+0  19213-3 0  9993
2 67961  97.2834 200.5943 0001230  87.6445 272.4939 15.33431403 22026
STARLINK-36881          
1 67962U 26038B   26190.50684322  .00008813  00000+0  27482-3 0  9992
2 67962  97.2861 199.8281 0001691 103.0521 257.0911 15.33464761 21909
STARLINK-36357          
1 67963U 26038C   26190.50140454  .00021986  00000+0  68076-3 0  9996
2 67963  97.2851 199.8333 0000594 148.0404 212.0875 15.33473023 21908
STARLINK-36349          
1 67964U 26038D   26190.50412052  .00014099  00000+0  43805-3 0  9993
2 67964  97.2866 199.8324 0001641 159.0618 201.0692 15.33457173 21901
STARLINK-36806          
1 67965U 26038E   26190.49868905  .00008723  00000+0  27203-3 0  9995
2 67965  97.2844 199.8393 0001354  86.7556 273.3842 15.33464577 21907
STARLINK-36820          
1 67966U 26038F   26191.01801386  .00020853  00000+0  64627-3 0  9994
2 67966  97.2809 200.3540 0001449  91.0878 269.0530 15.33454025 21983
STARLINK-36819          
1 67967U 26038G   26190.49325682  .00020470  00000+0  63423-3 0  9994
2 67967  97.2834 199.8393 0000917  17.4555 342.6719 15.33467175 21902
STARLINK-36812          
1 67968U 26038H   26191.01257461  .00014268  00000+0  44322-3 0  9998
2 67968  97.2824 200.3601 0002531  93.0238 267.1295 15.33460026 21980
STARLINK-36709          
1 67969U 26038J   26191.00713859  .00019262  00000+0  59735-3 0  9999
2 67969  97.2847 200.3719 0002319  91.5643 268.5866 15.33448642 21982
STARLINK-36319          
1 67970U 26038K   26191.27087612  .00022229  00000+0  68863-3 0  9990
2 67970  97.2835 200.6241 0001749 108.8511 251.2922 15.33455037 22020
STARLINK-36710          
1 67971U 26038L   26190.48237547  .00012742  00000+0  39601-3 0  9994
2 67971  97.2844 199.8608 0001376 103.3192 256.8205 15.33471777 21908
STARLINK-36894          
1 67972U 26038M   26191.26271804  .00010479  00000+0  32638-3 0  9994
2 67972  97.2844 200.6370 0001474  99.8859 260.2550 15.33452828 22026
STARLINK-36900          
1 67973U 26038N   26190.99626426  .00021251  00000+0  65814-3 0  9990
2 67973  97.2847 200.3832 0002300 104.2144 255.9355 15.33472015 21985
STARLINK-36901          
1 67974U 26038P   26191.25999810  .00022637  00000+0  70106-3 0  9990
2 67974  97.2848 200.6400 0001391  97.7676 262.3725 15.33460740 22027
STARLINK-36883          
1 67975U 26038Q   26190.98538602  .00019893  00000+0  61651-3 0  9993
2 67975  97.2845 200.4013 0003035 107.9469 252.2105 15.33462093 21981
STARLINK-36880          
1 67976U 26038R   26190.99354575  .00015363  00000+0  47705-3 0  9992
2 67976  97.2848 200.3873 0002340  94.9106 265.2404 15.33456127 21986
STARLINK-36904          
1 67977U 26038S   26190.98810673  .00015430  00000+0  47915-3 0  9996
2 67977  97.2869 200.3962 0002830  87.4982 272.6584 15.33452581 21983
STARLINK-36364          
1 67978U 26038T   26191.30621998  .00013913  00000+0  43237-3 0  9991
2 67978  97.2842 200.7296 0000948  87.8022 272.3330 15.33454835 22033
STARLINK-36359          
1 67979U 26038U   26190.99082412  .00015387  00000+0  47786-3 0  9998
2 67979  97.2854 200.3939 0002532  98.5588 261.5942 15.33451165 21989
STARLINK-36882          
1 67980U 26038V   26190.98266488  .00021964  00000+0  68038-3 0  9997
2 67980  97.2813 200.4033 0004673 106.8446 253.3309 15.33449387 21985
STARLINK-36874          
1 67981U 26038W   26191.30350138  .00029856  00000+0  92363-3 0  9997
2 67981  97.2824 200.7331 0002177  95.9306 264.2185 15.33438154 22032
STARLINK-36879          
1 67982U 26038X   26190.51772208  .00006887  00000+0  21545-3 0  9999
2 67982  97.2830 199.9627 0002097  97.7649 262.3832 15.33446556 21917
STARLINK-36867          
1 67983U 26038Y   26190.51228418  .00007399  00000+0  23118-3 0  9996
2 67983  97.2851 199.9713 0001738  71.2771 288.8660 15.33457960 21914
STARLINK-36266          
1 67984U 26038Z   26190.51500273  .00005674  00000+0  17788-3 0  9999
2 67984  97.2836 199.9698 0001996 105.3670 254.7794 15.33456040 21911
STARLINK-36802          
1 67985U 26038AA  26190.50832503  .00018766  00000+0  58193-3 0  9994
2 67985  97.2857 200.7423 0002306  97.1577 262.9928 15.33455961 21968
