OBJECT_NAME,OBJECT_ID,EPOCH,MEAN_MOTION,ECCENTRICITY,INCLINATION,RA_OF_ASC_NODE,ARG_OF_PERICENTER,MEAN_ANOMALY,EPHEMERIS_TYPE,CLASSIFICATION_TYPE,NORAD_CAT_ID,ELEMENT_SET_NO,REV_AT_EPOCH,BSTAR,MEAN_MOTION_DOT,MEAN_MOTION_DDOT
STARLINK-36918,2026-037AA,2026-07-10T02:36:10.830816,15.27596189,.0001363,42.9971,219.3094,287.2969,72.7733,0,U,67956,999,2206,.30414407E-3,.8121E-4,0
STARLINK-36829,2026-037AB,2026-07-10T02:47:17.886336,15.27606131,.00038468,43.0039,219.3797,289.8687,70.1750,0,U,67957,999,2205,.42912112E-3,.11575E-3,0
STARLINK-36799,2026-037AC,2026-07-10T02:30:35.743104,15.27644405,.0001334,42.9955,219.2706,270.4254,89.6445,0,U,67958,999,2206,.96793612E-3,.26522E-3,0
STARLINK-36834,2026-037AD,2026-07-10T02:15:49.669632,15.27591602,.0001759,42.9975,219.2057,273.8169,86.2482,0,U,67959,999,2206,.16977698E-3,.4414E-4,0
STARLINK-36841,2026-037AE,2026-07-10T02:21:22.933440,15.27592275,.00028535,43.0027,219.2357,276.1581,83.8946,0,U,67960,999,2206,.17332925E-3,.4512E-4,0
STARLINK-36912,2026-038A,2026-07-10T07:01:21.908352,15.33431403,.000123,97.2834,200.5943,87.6445,272.4939,0,U,67961,999,2202,.19212833E-3,.613E-4,0
STARLINK-36881,2026-038B,2026-07-09T12:09:51.254208,15.33464761,.00016911,97.2861,199.8281,103.0521,257.0911,0,U,67962,999,2190,.27481773E-3,.8813E-4,0
STARLINK-36357,2026-038C,2026-07-09T12:02:01.352256,15.33473023,.00005945,97.2851,199.8333,148.0404,212.0875,0,U,67963,999,2190,.68076471E-3,.21986E-3,0
STARLINK-36349,2026-038D,2026-07-09T12:05:56.012928,15.33457173,.0001641,97.2866,199.8324,159.0618,201.0692,0,U,67964,999,2190,.4380522E-3,.14099E-3,0
STARLINK-36806,2026-038E,2026-07-09T11:58:06.733920,15.33464577,.00013541,97.2844,199.8393,86.7556,273.3842,0,U,67965,999,2190,.27202512E-3,.8723E-4,0
STARLINK-36820,2026-038F,2026-07-10T00:25:56.397504,15.33454025,.00014492,97.2809,200.3540,91.0878,269.0530,0,U,67966,999,2198,.6462696E-3,.20853E-3,0
STARLINK-36819,2026-038G,2026-07-09T11:50:17.389248,15.33467175,.00009177,97.2834,199.8393,17.4555,342.6719,0,U,67967,999,2190,.63423146E-3,.2047E-3,0
STARLINK-36812,2026-038H,2026-07-10T00:18:06.446304,15.33460026,.00025312,97.2824,200.3601,93.0238,267.1295,0,U,67968,999,2198,.44321646E-3,.14268E-3,0
STARLINK-36709,2026-038J,2026-07-10T00:10:16.774176,15.33448642,.00023196,97.2847,200.3719,91.5643,268.5866,0,U,67969,999,2198,.59735388E-3,.19262E-3,0
STARLINK-36319,2026-038K,2026-07-10T06:30:03.696768,15.33455037,.0001749,97.2835,200.6241,108.8511,251.2922,0,U,67970,999,2202,.68862543E-3,.22229E-3,0
STARLINK-36710,2026-038L,2026-07-09T11:34:37.240608,15.33471777,.00013763,97.2844,199.8608,103.3192,256.8205,0,U,67971,999,2190,.39601428E-3,.12742E-3,0
STARLINK-36894,2026-038M,2026-07-10T06:18:18.838656,15.33452828,.00014744,97.2844,200.6370,99.8859,260.2550,0,U,67972,999,2202,.32637949E-3,.10479E-3,0
STARLINK-36900,2026-038N,2026-07-09T23:54:37.232064,15.33472015,.00023002,97.2847,200.3832,104.2144,255.9355,0,U,67973,999,2198,.65814126E-3,.21251E-3,0
STARLINK-36901,2026-038P,2026-07-10T06:14:23.835840,15.33460740,.00013911,97.2848,200.6400,97.7676,262.3725,0,U,67974,999,2202,.70105757E-3,.22637E-3,0
STARLINK-36883,2026-038Q,2026-07-09T23:38:57.352128,15.33462093,.00030354,97.2845,200.4013,107.9469,252.2105,0,U,67975,999,2198,.61650827E-3,.19893E-3,0
STARLINK-36880,2026-038R,2026-07-09T23:50:42.352800,15.33456127,.00023409,97.2848,200.3873,94.9106,265.2404,0,U,67976,999,2198,.47705072E-3,.15363E-3,0
STARLINK-36904,2026-038S,2026-07-09T23:42:52.421472,15.33452581,.00028301,97.2869,200.3962,87.4982,272.6584,0,U,67977,999,2198,.47915473E-3,.1543E-3,0
STARLINK-36364,2026-038T,2026-07-10T07:20:57.406272,15.33454835,.00009484,97.2842,200.7296,87.8022,272.3330,0,U,67978,999,2203,.43236886E-3,.13913E-3,0
STARLINK-36359,2026-038U,2026-07-09T23:46:47.203968,15.33451165,.00025321,97.2854,200.3939,98.5588,261.5942,0,U,67979,999,2198,.47785593E-3,.15387E-3,0
STARLINK-36882,2026-038V,2026-07-09T23:35:02.245632,15.33449387,.00046737,97.2813,200.4033,106.8446,253.3309,0,U,67980,999,2198,.68038136E-3,.21964E-3,0
STARLINK-36874,2026-038W,2026-07-10T07:17:02.519232,15.33438154,.00021777,97.2824,200.7331,95.9306,264.2185,0,U,67981,999,2203,.9236306E-3,.29856E-3,0
STARLINK-36879,2026-038X,2026-07-09T12:25:31.187712,15.33446556,.00020973,97.2830,199.9627,97.7649,262.3832,0,U,67982,999,2191,.21544731E-3,.6887E-4,0
STARLINK-36867,2026-038Y,2026-07-09T12:17:41.353152,15.33457960,.00017387,97.2851,199.9713,71.2771,288.8660,0,U,67983,999,2191,.23117646E-3,.7399E-4,0
STARLINK-36266,2026-038Z,2026-07-09T12:21:36.235872,15.33456040,.00019962,97.2836,199.9698,105.3670,254.7794,0,U,67984,999,2191,.1778812E-3,.5674E-4,0
STARLINK-36802,2026-038AA,2026-07-09T12:11:59.282592,15.33455961,.00023062,97.2857,200.7423,97.1577,262.9928,0,U,67985,999,2196,.58192703E-3,.18766E-3,0
